STARLINK-1877_new
1 17162C 20088AS  21326.13563353  .00001101  00000-0  73797-4 0  3265
2 17162  53.0527 143.1225 0001838  81.8506 308.8554 15.06386474    18
STARLINK-1877_old
1 27162C 20088AS  21325.14033065  .00001860  00000-0  12463-3 0  3250
2 27162  53.0527 147.5905 0001863  79.5786 310.6233 15.06383924    15
